STARLINK-1470           
1 45772U 20038AU  26068.60892913  .00054678  00000+0  19687-2 0  9990
2 45772  53.0480 174.6971 0002444  12.8687 347.2373 15.28074860317065
STARLINK-30259          
1 57521U 23115A   26068.18220055 -.00004096  00000+0 -14312-3 0  9991
2 57521  42.9984   4.4614 0001029 277.8055  82.2680 15.26733515143498
